ONEWEB-0709             
1 55172U 23004AJ  26155.08129907  .00000587  00000+0  16203-2 0  9997
2 55172  87.8894  23.6882 0001192 107.7160 252.4099 13.11418909164155
ONEWEB-0710             
1 55173U 23004AK  26154.99088749 -.00000035  00000+0 -12254-3 0  9998
2 55173  87.9142   8.4916 0001973  92.4483 267.6874 13.17650746165846
ONEWEB-0711             
1 55174U 23004AL  26155.05248122 -.00000444  00000+0 -12878-2 0  9995
2 55174  87.8904  23.6809 0002520  91.8252 268.3165 13.11418571164110
ONEWEB-0713             
1 55175U 23004AM  26155.07112820  .00000245  00000+0  65519-3 0  9991
2 55175  87.8905  23.6789 0002197  90.7305 269.4075 13.11418809164101
ONEWEB-0715             
1 55176U 23004AN  26154.60826134  .00000190  00000+0  49901-3 0  9996
2 55176  87.8900  23.7713 0001629 107.1323 252.9984 13.11418866164083
ONEWEB-0716             
1 55177U 23004AP  26155.06007301  .00000002  00000+0 -27690-4 0  9990
2 55177  87.9146   8.4795 0001675  76.5564 283.5754 13.17650933165854
ONEWEB-0717             
1 55178U 23004AQ  26155.11912935  .00000077  00000+0  16458-3 0  9995
2 55178  87.9152   8.4546 0002335  96.7650 263.3748 13.17652366165918
ONEWEB-0719             
1 55179U 23004AR  26155.05332512  .00000105  00000+0  23778-3 0  9991
2 55179  87.9152   8.4479 0001877  79.4452 280.6891 13.17650888165853
ONEWEB-0530             
1 55796U 23029A   26154.60522184  .00000088  00000+0  18477-3 0  9999
2 55796  87.9178 277.1775 0002382  97.0009 263.1396 13.20770593159350
ONEWEB-0534             
1 55797U 23029B   26154.29040611  .00000110  00000+0  23761-3 0  9993
2 55797  87.9179 277.2404 0001824  97.6915 262.4425 13.20770782159315
ONEWEB-0556             
1 55798U 23029C   26154.29715863  .00000118  00000+0  25758-3 0  9998
2 55798  87.9178 277.2388 0002131  75.3793 284.7576 13.20773089159312
ONEWEB-0562             
1 55799U 23029D   26154.28366606  .00000109  00000+0  23675-3 0  9991
2 55799  87.9178 277.2218 0002600  87.9588 272.1843 13.20772412159314
ONEWEB-0563             
1 55800U 23029E   26154.27863229  .00000119  00000+0  26065-3 0  9993
2 55800  87.9196 277.2510 0001538 105.7571 254.3732 13.20772062159301
ONEWEB-0564             
1 55801U 23029F   26154.27189374  .00000052  00000+0  95004-4 0  9992
2 55801  87.9178 277.2283 0002289  95.5001 264.6393 13.20773420159314
ONEWEB-0638             
1 55802U 23029G   26154.46351618  .00000132  00000+0  32090-3 0  9990
2 55802  87.8945 292.4893 0002107  82.9123 277.2246 13.14502063157597
ONEWEB-0639             
1 55803U 23029H   26154.99142908  .00000001  00000+0 -30317-4 0  9996
2 55803  87.9159 307.6057 0000841  97.0601 263.0627 13.19726130157165
