[{"OBJECT_NAME":"ONEWEB-0709","OBJECT_ID":"2023-004AJ","EPOCH":"2026-06-04T01:57:04.239648","MEAN_MOTION":13.11418909,"ECCENTRICITY":0.0001192,"INCLINATION":87.8894,"RA_OF_ASC_NODE":23.6882,"ARG_OF_PERICENTER":107.716,"MEAN_ANOMALY":252.4099,"EPHEMERIS_TYPE":0,"CLASSIFICATION_TYPE":"U","NORAD_CAT_ID":55172,"ELEMENT_SET_NO":999,"REV_AT_EPOCH":16415,"BSTAR":0.0016203,"MEAN_MOTION_DOT":5.87e-06,"MEAN_MOTION_DDOT":0.0},{"OBJECT_NAME":"ONEWEB-0710","OBJECT_ID":"2023-004AK","EPOCH":"2026-06-03T23:46:52.679136","MEAN_MOTION":13.17650746,"ECCENTRICITY":0.0001973,"INCLINATION":87.9142,"RA_OF_ASC_NODE":8.4916,"ARG_OF_PERICENTER":92.4483,"MEAN_ANOMALY":267.6874,"EPHEMERIS_TYPE":0,"CLASSIFICATION_TYPE":"U","NORAD_CAT_ID":55173,"ELEMENT_SET_NO":999,"REV_AT_EPOCH":16584,"BSTAR":-0.00012254,"MEAN_MOTION_DOT":-3.5e-07,"MEAN_MOTION_DDOT":0.0},{"OBJECT_NAME":"ONEWEB-0711","OBJECT_ID":"2023-004AL","EPOCH":"2026-06-04T01:15:34.377408","MEAN_MOTION":13.11418571,"ECCENTRICITY":0.000252,"INCLINATION":87.8904,"RA_OF_ASC_NODE":23.6809,"ARG_OF_PERICENTER":91.8252,"MEAN_ANOMALY":268.3165,"EPHEMERIS_TYPE":0,"CLASSIFICATION_TYPE":"U","NORAD_CAT_ID":55174,"ELEMENT_SET_NO":999,"REV_AT_EPOCH":16411,"BSTAR":-0.0012878000000000002,"MEAN_MOTION_DOT":-4.44e-06,"MEAN_MOTION_DDOT":0.0},{"OBJECT_NAME":"ONEWEB-0713","OBJECT_ID":"2023-004AM","EPOCH":"2026-06-04T01:42:25.476480","MEAN_MOTION":13.11418809,"ECCENTRICITY":0.0002197,"INCLINATION":87.8905,"RA_OF_ASC_NODE":23.6789,"ARG_OF_PERICENTER":90.7305,"MEAN_ANOMALY":269.4075,"EPHEMERIS_TYPE":0,"CLASSIFICATION_TYPE":"U","NORAD_CAT_ID":55175,"ELEMENT_SET_NO":999,"REV_AT_EPOCH":16410,"BSTAR":0.00065519,"MEAN_MOTION_DOT":2.45e-06,"MEAN_MOTION_DDOT":0.0},{"OBJECT_NAME":"ONEWEB-0715","OBJECT_ID":"2023-004AN","EPOCH":"2026-06-03T14:35:53.779776","MEAN_MOTION":13.11418866,"ECCENTRICITY":0.0001629,"INCLINATION":87.89,"RA_OF_ASC_NODE":23.7713,"ARG_OF_PERICENTER":107.1323,"MEAN_ANOMALY":252.9984,"EPHEMERIS_TYPE":0,"CLASSIFICATION_TYPE":"U","NORAD_CAT_ID":55176,"ELEMENT_SET_NO":999,"REV_AT_EPOCH":16408,"BSTAR":0.00049901,"MEAN_MOTION_DOT":1.9e-06,"MEAN_MOTION_DDOT":0.0},{"OBJECT_NAME":"ONEWEB-0716","OBJECT_ID":"2023-004AP","EPOCH":"2026-06-04T01:26:30.308064","MEAN_MOTION":13.17650933,"ECCENTRICITY":0.0001675,"INCLINATION":87.9146,"RA_OF_ASC_NODE":8.4795,"ARG_OF_PERICENTER":76.5564,"MEAN_ANOMALY":283.5754,"EPHEMERIS_TYPE":0,"CLASSIFICATION_TYPE":"U","NORAD_CAT_ID":55177,"ELEMENT_SET_NO":999,"REV_AT_EPOCH":16585,"BSTAR":-2.769e-05,"MEAN_MOTION_DOT":2e-08,"MEAN_MOTION_DDOT":0.0},{"OBJECT_NAME":"ONEWEB-0717","OBJECT_ID":"2023-004AQ","EPOCH":"2026-06-04T02:51:32.775840","MEAN_MOTION":13.17652366,"ECCENTRICITY":0.0002335,"INCLINATION":87.9152,"RA_OF_ASC_NODE":8.4546,"ARG_OF_PERICENTER":96.765,"MEAN_ANOMALY":263.3748,"EPHEMERIS_TYPE":0,"CLASSIFICATION_TYPE":"U","NORAD_CAT_ID":55178,"ELEMENT_SET_NO":999,"REV_AT_EPOCH":16591,"BSTAR":0.00016458,"MEAN_MOTION_DOT":7.7e-07,"MEAN_MOTION_DDOT":0.0},{"OBJECT_NAME":"ONEWEB-0719","OBJECT_ID":"2023-004AR","EPOCH":"2026-06-04T01:16:47.290368","MEAN_MOTION":13.17650888,"ECCENTRICITY":0.0001877,"INCLINATION":87.9152,"RA_OF_ASC_NODE":8.4479,"ARG_OF_PERICENTER":79.4452,"MEAN_ANOMALY":280.6891,"EPHEMERIS_TYPE":0,"CLASSIFICATION_TYPE":"U","NORAD_CAT_ID":55179,"ELEMENT_SET_NO":999,"REV_AT_EPOCH":16585,"BSTAR":0.00023778,"MEAN_MOTION_DOT":1.05e-06,"MEAN_MOTION_DDOT":0.0},{"OBJECT_NAME":"ONEWEB-0530","OBJECT_ID":"2023-029A","EPOCH":"2026-06-03T14:31:31.166976","MEAN_MOTION":13.20770593,"ECCENTRICITY":0.0002382,"INCLINATION":87.9178,"RA_OF_ASC_NODE":277.1775,"ARG_OF_PERICENTER":97.0009,"MEAN_ANOMALY":263.1396,"EPHEMERIS_TYPE":0,"CLASSIFICATION_TYPE":"U","NORAD_CAT_ID":55796,"ELEMENT_SET_NO":999,"REV_AT_EPOCH":15935,"BSTAR":0.00018476999999999998,"MEAN_MOTION_DOT":8.8e-07,"MEAN_MOTION_DDOT":0.0},{"OBJECT_NAME":"ONEWEB-0534","OBJECT_ID":"2023-029B","EPOCH":"2026-06-03T06:58:11.087904","MEAN_MOTION":13.20770782,"ECCENTRICITY":0.0001824,"INCLINATION":87.9179,"RA_OF_ASC_NODE":277.2404,"ARG_OF_PERICENTER":97.6915,"MEAN_ANOMALY":262.4425,"EPHEMERIS_TYPE":0,"CLASSIFICATION_TYPE":"U","NORAD_CAT_ID":55797,"ELEMENT_SET_NO":999,"REV_AT_EPOCH":15931,"BSTAR":0.00023761,"MEAN_MOTION_DOT":1.1e-06,"MEAN_MOTION_DDOT":0.0},{"OBJECT_NAME":"ONEWEB-0556","OBJECT_ID":"2023-029C","EPOCH":"2026-06-03T07:07:54.505632","MEAN_MOTION":13.20773089,"ECCENTRICITY":0.0002131,"INCLINATION":87.9178,"RA_OF_ASC_NODE":277.2388,"ARG_OF_PERICENTER":75.3793,"MEAN_ANOMALY":284.7576,"EPHEMERIS_TYPE":0,"CLASSIFICATION_TYPE":"U","NORAD_CAT_ID":55798,"ELEMENT_SET_NO":999,"REV_AT_EPOCH":15931,"BSTAR":0.00025758,"MEAN_MOTION_DOT":1.18e-06,"MEAN_MOTION_DDOT":0.0},{"OBJECT_NAME":"ONEWEB-0562","OBJECT_ID":"2023-029D","EPOCH":"2026-06-03T06:48:28.747584","MEAN_MOTION":13.20772412,"ECCENTRICITY":0.00026,"INCLINATION":87.9178,"RA_OF_ASC_NODE":277.2218,"ARG_OF_PERICENTER":87.9588,"MEAN_ANOMALY":272.1843,"EPHEMERIS_TYPE":0,"CLASSIFICATION_TYPE":"U","NORAD_CAT_ID":55799,"ELEMENT_SET_NO":999,"REV_AT_EPOCH":15931,"BSTAR":0.00023674999999999998,"MEAN_MOTION_DOT":1.09e-06,"MEAN_MOTION_DDOT":0.0},{"OBJECT_NAME":"ONEWEB-0563","OBJECT_ID":"2023-029E","EPOCH":"2026-06-03T06:41:13.829856","MEAN_MOTION":13.20772062,"ECCENTRICITY":0.0001538,"INCLINATION":87.9196,"RA_OF_ASC_NODE":277.251,"ARG_OF_PERICENTER":105.7571,"MEAN_ANOMALY":254.3732,"EPHEMERIS_TYPE":0,"CLASSIFICATION_TYPE":"U","NORAD_CAT_ID":55800,"ELEMENT_SET_NO":999,"REV_AT_EPOCH":15930,"BSTAR":0.00026065,"MEAN_MOTION_DOT":1.19e-06,"MEAN_MOTION_DDOT":0.0},{"OBJECT_NAME":"ONEWEB-0564","OBJECT_ID":"2023-029F","EPOCH":"2026-06-03T06:31:31.619136","MEAN_MOTION":13.2077342,"ECCENTRICITY":0.0002289,"INCLINATION":87.9178,"RA_OF_ASC_NODE":277.2283,"ARG_OF_PERICENTER":95.5001,"MEAN_ANOMALY":264.6393,"EPHEMERIS_TYPE":0,"CLASSIFICATION_TYPE":"U","NORAD_CAT_ID":55801,"ELEMENT_SET_NO":999,"REV_AT_EPOCH":15931,"BSTAR":9.5004e-05,"MEAN_MOTION_DOT":5.2e-07,"MEAN_MOTION_DDOT":0.0},{"OBJECT_NAME":"ONEWEB-0638","OBJECT_ID":"2023-029G","EPOCH":"2026-06-03T11:07:27.797952","MEAN_MOTION":13.14502063,"ECCENTRICITY":0.0002107,"INCLINATION":87.8945,"RA_OF_ASC_NODE":292.4893,"ARG_OF_PERICENTER":82.9123,"MEAN_ANOMALY":277.2246,"EPHEMERIS_TYPE":0,"CLASSIFICATION_TYPE":"U","NORAD_CAT_ID":55802,"ELEMENT_SET_NO":999,"REV_AT_EPOCH":15759,"BSTAR":0.00032090000000000005,"MEAN_MOTION_DOT":1.32e-06,"MEAN_MOTION_DDOT":0.0},{"OBJECT_NAME":"ONEWEB-0639","OBJECT_ID":"2023-029H","EPOCH":"2026-06-03T23:47:39.472512","MEAN_MOTION":13.1972613,"ECCENTRICITY":8.41e-05,"INCLINATION":87.9159,"RA_OF_ASC_NODE":307.6057,"ARG_OF_PERICENTER":97.0601,"MEAN_ANOMALY":263.0627,"EPHEMERIS_TYPE":0,"CLASSIFICATION_TYPE":"U","NORAD_CAT_ID":55803,"ELEMENT_SET_NO":999,"REV_AT_EPOCH":15716,"BSTAR":-3.0317e-05,"MEAN_MOTION_DOT":1e-08,"MEAN_MOTION_DDOT":0.0}]